ONEWEB-0120             
1 47266U 20100J   25358.11218874 -.00000790  00000+0 -22314-2 0  9994
2 47266  87.8921  25.4567 0001641  96.6725 263.4590 13.12443173241766
ONEWEB-0121             
1 47267U 20100K   25358.10017302 -.00013245  00000+0 -36873-1 0  9990
2 47267  87.8932  25.4285 0001574  90.0878 270.0431 13.12505219241676
ONEWEB-0122             
1 47268U 20100L   25358.09501323 -.00001259  00000+0 -35353-2 0  9995
2 47268  87.8935  25.4321 0001596  91.5018 268.6294 13.12447569241580
ONEWEB-0123             
1 47269U 20100M   25358.31875588 -.00000075  00000+0 -24402-3 0  9997
2 47269  87.8924  25.4130 0001770  99.1821 260.9508 13.12441790241759
ONEWEB-0124             
1 47270U 20100N   25358.07988673  .00000511  00000+0  13838-2 0  9995
2 47270  87.8921  25.4652 0001920  96.3001 263.8346 13.12439838241609
ONEWEB-0125             
1 47271U 20100P   25358.13410232  .00002220  00000+0  61343-2 0  9997
2 47271  87.8933  25.4192 0001836 100.0009 260.1327 13.12432739241678
ONEWEB-0126             
1 47272U 20100Q   25358.30702950  .00000135  00000+0  33948-3 0  9992
2 47272  87.8933  25.4075 0001628  96.4350 263.6964 13.12441481241764
ONEWEB-0127             
1 47273U 20100R   25358.12051354 -.00000315  00000+0 -91127-3 0  9993
2 47273  87.8925  25.4540 0001630  94.5271 265.6044 13.12441399241766
